{
  "links" : {
    "next" : "https://api.nasa.gov/neo/rest/v1/feed?start_date=1995-04-16&end_date=1995-04-16&detailed=true&api_key=t0TVs3DtDT2H8Oy2Zy8m2eVrNsAVKAexjcZXUckd",
    "prev" : "https://api.nasa.gov/neo/rest/v1/feed?start_date=1995-04-14&end_date=1995-04-14&detailed=true&api_key=t0TVs3DtDT2H8Oy2Zy8m2eVrNsAVKAexjcZXUckd",
    "self" : "https://api.nasa.gov/neo/rest/v1/feed?start_date=1995-04-15&end_date=1995-04-15&detailed=true&api_key=t0TVs3DtDT2H8Oy2Zy8m2eVrNsAVKAexjcZXUckd"
  },
  "element_count" : 3,
  "near_earth_objects" : {
    "1995-04-15" : [ {
      "links" : {
        "self" : "https://api.nasa.gov/neo/rest/v1/neo/3409964?api_key=t0TVs3DtDT2H8Oy2Zy8m2eVrNsAVKAexjcZXUckd"
      },
      "neo_reference_id" : "3409964",
      "name" : "(2008 JG)",
      "nasa_jpl_url" : "http://ssd.jpl.nasa.gov/sbdb.cgi?sstr=3409964",
      "absolute_magnitude_h" : 20.8,
      "estimated_diameter" : {
        "kilometers" : {
          "estimated_diameter_min" : 0.1838886721,
          "estimated_diameter_max" : 0.411187571
        },
        "meters" : {
          "estimated_diameter_min" : 183.8886720703,
          "estimated_diameter_max" : 411.1875710413
        },
        "miles" : {
          "estimated_diameter_min" : 0.1142630881,
          "estimated_diameter_max" : 0.2555000322
        },
        "feet" : {
          "estimated_diameter_min" : 603.309310875,
          "estimated_diameter_max" : 1349.040630575
        }
      },
      "is_potentially_hazardous_asteroid" : true,
      "close_approach_data" : [ {
        "close_approach_date" : "1995-04-15",
        "epoch_date_close_approach" : 797929200000,
        "relative_velocity" : {
          "kilometers_per_second" : "8.1878859535",
          "kilometers_per_hour" : "29476.3894326732",
          "miles_per_hour" : "18315.4820894296"
        },
        "miss_distance" : {
          "astronomical" : "0.3826167269",
          "lunar" : "148.8379058838",
          "kilometers" : "57238648",
          "miles" : "35566448"
        },
        "orbiting_body" : "Earth"
      } ],
      "orbital_data" : {
        "orbit_id" : "32",
        "orbit_determination_date" : "2017-04-06 09:03:32",
        "orbit_uncertainty" : "2",
        "minimum_orbit_intersection" : ".0497576",
        "jupiter_tisserand_invariant" : "5.797",
        "epoch_osculation" : "2458000.5",
        "eccentricity" : ".2962061287988718",
        "semi_major_axis" : "1.052079402640927",
        "inclination" : "7.906473496389842",
        "ascending_node_longitude" : "128.8405407963474",
        "orbital_period" : "394.1587791697582",
        "perihelion_distance" : ".7404470355956286",
        "perihelion_argument" : "242.293197578416",
        "aphelion_distance" : "1.363711769686226",
        "perihelion_time" : "2457881.085681769947",
        "mean_anomaly" : "109.0655767033018",
        "mean_motion" : ".9133375152985072",
        "equinox" : "J2000"
      }
    }, {
      "links" : {
        "self" : "https://api.nasa.gov/neo/rest/v1/neo/3562320?api_key=t0TVs3DtDT2H8Oy2Zy8m2eVrNsAVKAexjcZXUckd"
      },
      "neo_reference_id" : "3562320",
      "name" : "(2011 GK44)",
      "nasa_jpl_url" : "http://ssd.jpl.nasa.gov/sbdb.cgi?sstr=3562320",
      "absolute_magnitude_h" : 25.6,
      "estimated_diameter" : {
        "kilometers" : {
          "estimated_diameter_min" : 0.0201629919,
          "estimated_diameter_max" : 0.0450858206
        },
        "meters" : {
          "estimated_diameter_min" : 20.1629919443,
          "estimated_diameter_max" : 45.0858206172
        },
        "miles" : {
          "estimated_diameter_min" : 0.0125286985,
          "estimated_diameter_max" : 0.0280150214
        },
        "feet" : {
          "estimated_diameter_min" : 66.1515504905,
          "estimated_diameter_max" : 147.9193637137
        }
      },
      "is_potentially_hazardous_asteroid" : false,
      "close_approach_data" : [ {
        "close_approach_date" : "1995-04-15",
        "epoch_date_close_approach" : 797929200000,
        "relative_velocity" : {
          "kilometers_per_second" : "14.0912031607",
          "kilometers_per_hour" : "50728.3313784829",
          "miles_per_hour" : "31520.6123501468"
        },
        "miss_distance" : {
          "astronomical" : "0.2689702852",
          "lunar" : "104.6294403076",
          "kilometers" : "40237380",
          "miles" : "25002350"
        },
        "orbiting_body" : "Earth"
      } ],
      "orbital_data" : {
        "orbit_id" : "10",
        "orbit_determination_date" : "2017-04-06 08:53:48",
        "orbit_uncertainty" : "7",
        "minimum_orbit_intersection" : ".024568",
        "jupiter_tisserand_invariant" : "6.797",
        "epoch_osculation" : "2458000.5",
        "eccentricity" : ".1986104067958223",
        "semi_major_axis" : ".8633230890356343",
        "inclination" : "15.29060134113289",
        "ascending_node_longitude" : "18.63948790340435",
        "orbital_period" : "292.993820551631",
        "perihelion_distance" : ".691858139126041",
        "perihelion_argument" : "344.8005314441176",
        "aphelion_distance" : "1.034788038945228",
        "perihelion_time" : "2458132.945059471203",
        "mean_anomaly" : "197.2654367936369",
        "mean_motion" : "1.228694855482665",
        "equinox" : "J2000"
      }
    }, {
      "links" : {
        "self" : "https://api.nasa.gov/neo/rest/v1/neo/3747992?api_key=t0TVs3DtDT2H8Oy2Zy8m2eVrNsAVKAexjcZXUckd"
      },
      "neo_reference_id" : "3747992",
      "name" : "(2016 FY2)",
      "nasa_jpl_url" : "http://ssd.jpl.nasa.gov/sbdb.cgi?sstr=3747992",
      "absolute_magnitude_h" : 25.4,
      "estimated_diameter" : {
        "kilometers" : {
          "estimated_diameter_min" : 0.022108281,
          "estimated_diameter_max" : 0.0494356193
        },
        "meters" : {
          "estimated_diameter_min" : 22.1082810359,
          "estimated_diameter_max" : 49.435619262
        },
        "miles" : {
          "estimated_diameter_min" : 0.0137374447,
          "estimated_diameter_max" : 0.0307178602
        },
        "feet" : {
          "estimated_diameter_min" : 72.5337327539,
          "estimated_diameter_max" : 162.1903570994
        }
      },
      "is_potentially_hazardous_asteroid" : false,
      "close_approach_data" : [ {
        "close_approach_date" : "1995-04-15",
        "epoch_date_close_approach" : 797929200000,
        "relative_velocity" : {
          "kilometers_per_second" : "11.1995010545",
          "kilometers_per_hour" : "40318.2037961903",
          "miles_per_hour" : "25052.163908805"
        },
        "miss_distance" : {
          "astronomical" : "0.2328691339",
          "lunar" : "90.5860900879",
          "kilometers" : "34836728",
          "miles" : "21646538"
        },
        "orbiting_body" : "Earth"
      } ],
      "orbital_data" : {
        "orbit_id" : "17",
        "orbit_determination_date" : "2017-04-21 06:20:19",
        "orbit_uncertainty" : "5",
        "minimum_orbit_intersection" : ".0053862",
        "jupiter_tisserand_invariant" : "6.790",
        "epoch_osculation" : "2458000.5",
        "eccentricity" : ".177454625327355",
        "semi_major_axis" : ".8693364318543375",
        "inclination" : "1.86779849136472",
        "ascending_node_longitude" : "150.0050896869119",
        "orbital_period" : "296.0603493553376",
        "perihelion_distance" : ".7150686610562064",
        "perihelion_argument" : "204.9786870571115",
        "aphelion_distance" : "1.023604202652469",
        "perihelion_time" : "2457906.713911322377",
        "mean_anomaly" : "114.0409109070574",
        "mean_motion" : "1.21596830100312",
        "equinox" : "J2000"
      }
    } ]
  }
}